STARLINK-36841          
1 67960U 26037AE  26064.91668981 -.01433746  59782-3 -36875-2 0  9997
2 67960  42.9997 221.6277 0001626 286.3273  99.4334 15.94371409  2594
STARLINK-36912          
1 67961U 26038A   26064.91668981 -.01514854  70316-3 -30983-2 0  9999
2 67961  97.2762  74.9001 0001087  71.8501 289.5032 15.99495061  2597
STARLINK-36881          
1 67962U 26038B   26064.91668981 -.01512553  70179-3 -30800-2 0  9999
2 67962  97.2760  74.9008 0001054  71.7747 291.4992 15.99573297  2593
STARLINK-36357          
1 67963U 26038C   26064.91668981 -.01514432  70532-3 -30420-2 0  9999
2 67963  97.2757  74.9033 0001149  70.6254 297.7464 15.99815898  2593
STARLINK-36349          
1 67964U 26038D   26064.91668981 -.01521086  71017-3 -30754-2 0  9992
2 67964  97.2755  74.9018 0001184  72.8734 292.9440 15.99700730  2590
STARLINK-36806          
1 67965U 26038E   26064.91668981 -.01515899  70771-3 -30210-2 0  9991
2 67965  97.2752  74.9043 0001107  67.4952 303.8281 15.99956444  2593
STARLINK-36820          
1 67966U 26038F   26064.91668981 -.01504614  69884-3 -29793-2 0  9992
2 67966  97.2752  74.9055 0001098  75.7037 298.0986 16.00068596  2594
STARLINK-36819          
1 67967U 26038G   26064.91668981 -.01508468  70315-3 -29660-2 0  9998
2 67967  97.2750  74.9065 0001150  68.0456 308.4262 16.00193341  2593
STARLINK-36812          
1 67968U 26038H   26064.91668981 -.01510255  70555-3 -29516-2 0  9992
2 67968  97.2747  74.9070 0001112  70.6449 308.1205 16.00300517  2594
STARLINK-36709          
1 67969U 26038J   26064.91668981 -.01489777  68984-3 -28701-2 0  9995
2 67969  97.2747  74.9097 0001148  67.0299 317.1848 16.00550286  2599
STARLINK-36319          
1 67970U 26038K   26064.91668981 -.01486915  68637-3 -28858-2 0  9996
2 67970  97.2746  74.9083 0001202  61.6206 319.8458 16.00420071  2565
STARLINK-36710          
1 67971U 26038L   26064.91668981 -.01486603  68818-3 -28417-2 0  9993
2 67971  97.2745  74.9113 0000963  99.7042 287.8722 16.00687191  2591
STARLINK-36894          
1 67972U 26038M   26064.91668981 -.01481958  68539-3 -28081-2 0  9999
2 67972  97.2740  74.9124 0001234  59.8432 330.4372 16.00839859  2597
STARLINK-36900          
1 67973U 26038N   26064.91668981 -.01473828  68042-3 -27516-2 0  9998
2 67973  97.2739  74.9145 0001157  68.4250 327.3359 16.01098127  2593
STARLINK-36901          
1 67974U 26038P   26064.91668981 -.01473424  67900-3 -27728-2 0  9998
2 67974  97.2739  74.9132 0001326  54.7524 338.1339 16.00958526  2595
STARLINK-36883          
1 67975U 26038Q   26064.91668981 -.01471821  68290-3 -26642-2 0  9995
2 67975  97.2733  74.9192 0001271  60.5608 346.2967 16.01635596  2590
